{
"type": "FeatureCollection",
"crs": { "type": "name", "properties": { "name": "urn:ogc:def:crs:OGC:1.3:CRS84" } },
                                                                                
"features": [
{ "type": "Feature", "properties": { "OBJECTID": 0, "FID_VEGAS_": 0, "Id": 0, "FID_Vegas": 0, "Name": "None", "AREA": 0.000000, "Shape_Leng": 0.000000, "Shape_Le_1": 0.000000, "SISL": 0.000000, "OBJECTID_1": 0, "Shape_Le_2": 0.000000, "Shape_Le_3": 0.001629, "Shape_Area": 0.000000, "partialBuilding": 1.000000, "partialDec": 0.442990 }, "geometry": { "type": "Polygon", "coordinates": [ [ [ -115.277682599940547, 36.177105467830764, 0.0 ], [ -115.277754091999952, 36.177104758000041, 0.0 ], [ -115.277754421999987, 36.177126433000069, 0.0 ], [ -115.277861407999978, 36.177125371000045, 0.0 ], [ -115.27786250299999, 36.177197293000063, 0.0 ], [ -115.277892880999957, 36.177196991000073, 0.0 ], [ -115.277894349999897, 36.177293440000028, 0.0 ], [ -115.277866736999954, 36.177293714000029, 0.0 ], [ -115.277867731999947, 36.177359056000057, 0.0 ], [ -115.277859042999978, 36.177359143000047, 0.0 ], [ -115.277859294999985, 36.177375723000068, 0.0 ], [ -115.277762018999965, 36.177376689000027, 0.0 ], [ -115.27776159, 36.177348520000066, 0.0 ], [ -115.277723613999967, 36.177348897000059, 0.0 ], [ -115.277724271999944, 36.177392161000057, 0.0 ], [ -115.277682599940547, 36.177392574975421, 0.0 ], [ -115.277682599940547, 36.177105467830764, 0.0 ] ] ] } },
{ "type": "Feature", "properties": { "OBJECTID": 0, "FID_VEGAS_": 0, "Id": 0, "FID_Vegas": 0, "Name": "None", "AREA": 0.000000, "Shape_Leng": 0.000000, "Shape_Le_1": 0.000000, "SISL": 0.000000, "OBJECTID_1": 0, "Shape_Le_2": 0.000000, "Shape_Le_3": 0.001576, "Shape_Area": 0.000000, "partialBuilding": 1.000000, "partialDec": 0.254749 }, "geometry": { "type": "Polygon", "coordinates": [ [ [ -115.277813796400281, 36.175682699824215, 0.0 ], [ -115.277813916999946, 36.175688053000044, 0.0 ], [ -115.277824700999986, 36.175687894000077, 0.0 ], [ -115.27784029899999, 36.175687666000044, 0.0 ], [ -115.27784264099995, 36.175791639000067, 0.0 ], [ -115.277827042999945, 36.175791868000033, 0.0 ], [ -115.277816603999952, 36.175792021000063, 0.0 ], [ -115.277818005999961, 36.175854271000048, 0.0 ], [ -115.277809167999976, 36.175854400000048, 0.0 ], [ -115.277809600999944, 36.175873611000043, 0.0 ], [ -115.277712910999981, 36.175875030000043, 0.0 ], [ -115.277712097999938, 36.175838924000061, 0.0 ], [ -115.277682599940547, 36.175839356598836, 0.0 ], [ -115.277682599940547, 36.175682699824215, 0.0 ], [ -115.277813796400281, 36.175682699824215, 0.0 ] ] ] } },
{ "type": "Feature", "properties": { "OBJECTID": 0, "FID_VEGAS_": 0, "Id": 0, "FID_Vegas": 0, "Name": "None", "AREA": 0.000000, "Shape_Leng": 0.000000, "Shape_Le_1": 0.000000, "SISL": 0.000000, "OBJECTID_1": 0, "Shape_Le_2": 0.000000, "Shape_Le_3": 0.001617, "Shape_Area": 0.000000, "partialBuilding": 1.000000, "partialDec": 0.498396 }, "geometry": { "type": "Polygon", "coordinates": [ [ [ -115.277682599940547, 36.175938187824897, 0.0 ], [ -115.277802376999944, 36.175937861000079, 0.0 ], [ -115.27780288699995, 36.176059682000073, 0.0 ], [ -115.277849233999973, 36.176059556000041, 0.0 ], [ -115.277849695999976, 36.176169868000045, 0.0 ], [ -115.277805942999976, 36.176169988000026, 0.0 ], [ -115.277806086999988, 36.176204521000045, 0.0 ], [ -115.277849840999977, 36.176204403000042, 0.0 ], [ -115.277850196999964, 36.176289515000065, 0.0 ], [ -115.27775236799999, 36.176289782000026, 0.0 ], [ -115.27775248, 36.176316574000055, 0.0 ], [ -115.277682599940547, 36.176316764461788, 0.0 ], [ -115.277682599940547, 36.175938187824897, 0.0 ] ] ] } },
{ "type": "Feature", "properties": { "OBJECTID": 0, "FID_VEGAS_": 0, "Id": 0, "FID_Vegas": 0, "Name": "None", "AREA": 0.000000, "Shape_Leng": 0.000000, "Shape_Le_1": 0.000000, "SISL": 0.000000, "OBJECTID_1": 0, "Shape_Le_2": 0.000000, "Shape_Le_3": 0.001577, "Shape_Area": 0.000000, "partialBuilding": 1.000000, "partialDec": 0.326674 }, "geometry": { "type": "Polygon", "coordinates": [ [ [ -115.277682599940547, 36.176356639871997, 0.0 ], [ -115.277700063999987, 36.176357314000029, 0.0 ], [ -115.277698182999984, 36.17638904100005, 0.0 ], [ -115.277721035999946, 36.176389923000045, 0.0 ], [ -115.27771949, 36.176416029000052, 0.0 ], [ -115.277856874999941, 36.176421331000029, 0.0 ], [ -115.277853093999965, 36.176485150000076, 0.0 ], [ -115.277865918999964, 36.176485645000071, 0.0 ], [ -115.277862633999973, 36.176541103000034, 0.0 ], [ -115.277845036999963, 36.176540423000063, 0.0 ], [ -115.277840078999986, 36.17662413000005, 0.0 ], [ -115.277791313999955, 36.176622248000058, 0.0 ], [ -115.277792104999946, 36.176608902000055, 0.0 ], [ -115.27776016699994, 36.176607669000077, 0.0 ], [ -115.277760941999986, 36.176594610000052, 0.0 ], [ -115.277718978999985, 36.176592990000074, 0.0 ], [ -115.277718203999939, 36.176606050000032, 0.0 ], [ -115.277682599940547, 36.176604675311751, 0.0 ], [ -115.277682599940547, 36.176356639871997, 0.0 ] ] ] } },
{ "type": "Feature", "properties": { "OBJECTID": 0, "FID_VEGAS_": 0, "Id": 0, "FID_Vegas": 0, "Name": "None", "AREA": 0.000000, "Shape_Leng": 0.000000, "Shape_Le_1": 0.000000, "SISL": 0.000000, "OBJECTID_1": 0, "Shape_Le_2": 0.000000, "Shape_Le_3": 0.001567, "Shape_Area": 0.000000, "partialBuilding": 1.000000, "partialDec": 0.430325 }, "geometry": { "type": "Polygon", "coordinates": [ [ [ -115.277682599940547, 36.176685353516731, 0.0 ], [ -115.27781946, 36.17669380500007, 0.0 ], [ -115.277814715999966, 36.176743868000074, 0.0 ], [ -115.277800238999987, 36.176742974000035, 0.0 ], [ -115.27779273499999, 36.176822157000061, 0.0 ], [ -115.27781581399995, 36.176823581000065, 0.0 ], [ -115.277840806999961, 36.17682512500005, 0.0 ], [ -115.277830460999951, 36.176934284000026, 0.0 ], [ -115.27780546799994, 36.176932740000041, 0.0 ], [ -115.277786781999964, 36.17693158600008, 0.0 ], [ -115.277784234999956, 36.176958457000069, 0.0 ], [ -115.27776492199996, 36.176957264000066, 0.0 ], [ -115.277761202999955, 36.176996498000051, 0.0 ], [ -115.27778051699994, 36.176997691000054, 0.0 ], [ -115.277776217999985, 36.177043041000047, 0.0 ], [ -115.2777631, 36.17704223100003, 0.0 ], [ -115.277761441999985, 36.177059721000035, 0.0 ], [ -115.277691574999949, 36.177055407000068, 0.0 ], [ -115.277690938999967, 36.177062117000048, 0.0 ], [ -115.277682599940547, 36.177061602082169, 0.0 ], [ -115.277682599940547, 36.176685353516731, 0.0 ] ] ] } }
]
}
